{"type": "FeatureCollection", "features": [ {"type": "Feature", "properties": {"norad_id": 29940, "name": "FENGYUN 1C DEB", "group": "fengyun-1c-debris", "lat": 65.61931624354605, "lon": -27.305813638359282, "alt_km": 784.6014082762194, "timestamp": "2025-12-08T10:52:03.220071+00:00", "meta": {"OBJECT_NAME": "FENGYUN 1C DEB", "OBJECT_ID": "1999-025JN", "EPOCH": "2025-12-07T14:49:20.545824", "MEAN_MOTION": 14.18802903, "ECCENTRICITY": 0.00746724, "INCLINATION": 98.6212, "RA_OF_ASC_NODE": 351.4391, "ARG_OF_PERICENTER": 114.4066, "MEAN_ANOMALY": 9.7215, "EPHEMERIS_TYPE": 0, "CLASSIFICATION_TYPE": "U", "NORAD_CAT_ID": 29940, "ELEMENT_SET_NO": 999, "REV_AT_EPOCH": 97415, "BSTAR": 0.0010026434, "MEAN_MOTION_DOT": 2.101e-05, "MEAN_MOTION_DDOT": 0}, "tle": {"line1": "1 29940U 99025JN  25341.61759891  .00002101  00000+0  10026-2 0  9994", "line2": "2 29940  98.6212 351.4391 0074672 114.4066   9.7215 14.18802903974154"}}, "geometry": {"type": "Point", "coordinates": [-27.305813638359282, 65.61931624354605]}}, {"type": "Feature", "properties": {"norad_id": 29942, "name": "FENGYUN 1C DEB", "group": "fengyun-1c-debris", "lat": 68.01730510852514, "lon": -109.55887916484359, "alt_km": 818.7185005018118, "timestamp": "2025-12-08T10:52:03.220081+00:00", "meta": {"OBJECT_NAME": "FENGYUN 1C DEB", "OBJECT_ID": "1999-025JQ", "EPOCH": "2025-12-07T17:33:47.659104", "MEAN_MOTION": 14.30386322, "ECCENTRICITY": 0.00487439, "INCLINATION": 98.6373, "RA_OF_ASC_NODE": 47.6059, "ARG_OF_PERICENTER": 291.0422, "MEAN_ANOMALY": 68.5551, "EPHEMERIS_TYPE": 0, "CLASSIFICATION_TYPE": "U", "NORAD_CAT_ID": 29942, "ELEMENT_SET_NO": 999, "REV_AT_EPOCH": 97797, "BSTAR": 0.0012389467, "MEAN_MOTION_DOT": 3.219e-05, "MEAN_MOTION_DDOT": 0}, "tle": {"line1": "1 29942U 99025JQ  25341.73180161  .00003219  00000+0  12389-2 0  9992", "line2": "2 29942  98.6373  47.6059 0048743 291.0422  68.5551 14.30386322977972"}}, "geometry": {"type": "Point", "coordinates": [-109.55887916484359, 68.01730510852514]}}, {"type": "Feature", "properties": {"norad_id": 29943, "name": "FENGYUN 1C DEB", "group": "fengyun-1c-debris", "lat": 18.94578548438681, "lon": -12.681322158229678, "alt_km": 879.8089964622577, "timestamp": "2025-12-08T10:52:03.220092+00:00", "meta": {"OBJECT_NAME": "FENGYUN 1C DEB", "OBJECT_ID": "1999-025JR", "EPOCH": "2025-12-07T23:07:17.409216", "MEAN_MOTION": 14.09669755, "ECCENTRICITY": 0.00347117, "INCLINATION": 98.7268, "RA_OF_ASC_NODE": 349.8666, "ARG_OF_PERICENTER": 240.8729, "MEAN_ANOMALY": 175.8287, "EPHEMERIS_TYPE": 0, "CLASSIFICATION_TYPE": "U", "NORAD_CAT_ID": 29943, "ELEMENT_SET_NO": 999, "REV_AT_EPOCH": 97239, "BSTAR": 0.00012689162, "MEAN_MOTION_DOT": 1.81e-06, "MEAN_MOTION_DDOT": 0}, "tle": {"line1": "1 29943U 99025JR  25341.96339594  .00000181  00000+0  12689-3 0  9993", "line2": "2 29943  98.7268 349.8666 0034711 240.8729 175.8287 14.09669755972399"}}, "geometry": {"type": "Point", "coordinates": [-12.681322158229678, 18.94578548438681]}}, {"type": "Feature", "properties": {"norad_id": 29944, "name": "FENGYUN 1C DEB", "group": "fengyun-1c-debris", "lat": 67.36430205950508, "lon": -106.38784316504271, "alt_km": 715.590579498129, "timestamp": "2025-12-08T10:52:03.220102+00:00", "meta": {"OBJECT_NAME": "FENGYUN 1C DEB", "OBJECT_ID": "1999-025JS", "EPOCH": "2025-12-07T18:24:14.906880", "MEAN_MOTION": 14.87383742, "ECCENTRICITY": 0.01665915, "INCLINATION": 99.0028, "RA_OF_ASC_NODE": 275.1809, "ARG_OF_PERICENTER": 247.953, "MEAN_ANOMALY": 110.3917, "EPHEMERIS_TYPE": 0, "CLASSIFICATION_TYPE": "U", "NORAD_CAT_ID": 29944, "ELEMENT_SET_NO": 999, "REV_AT_EPOCH": 380, "BSTAR": 0.0013217414, "MEAN_MOTION_DOT": 0.00015382, "MEAN_MOTION_DDOT": 0}, "tle": {"line1": "1 29944U 99025JS  25341.76683920  .00015382  00000+0  13217-2 0  9993", "line2": "2 29944  99.0028 275.1809 0166591 247.9530 110.3917 14.87383742  3808"}}, "geometry": {"type": "Point", "coordinates": [-106.38784316504271, 67.36430205950508]}}, {"type": "Feature", "properties": {"norad_id": 29945, "name": "FENGYUN 1C DEB", "group": "fengyun-1c-debris", "lat": -69.25796681695297, "lon": 30.34535339437112, "alt_km": 880.0201496006966, "timestamp": "2025-12-08T10:52:03.220113+00:00", "meta": {"OBJECT_NAME": "FENGYUN 1C DEB", "OBJECT_ID": "1999-025JT", "EPOCH": "2025-12-07T23:34:38.572896", "MEAN_MOTION": 14.0557045, "ECCENTRICITY": 0.00311836, "INCLINATION": 98.7924, "RA_OF_ASC_NODE": 5.7672, "ARG_OF_PERICENTER": 15.8608, "MEAN_ANOMALY": 54.3439, "EPHEMERIS_TYPE": 0, "CLASSIFICATION_TYPE": "U", "NORAD_CAT_ID": 29945, "ELEMENT_SET_NO": 999, "REV_AT_EPOCH": 96911, "BSTAR": 6.5466071e-05, "MEAN_MOTION_DOT": 6.4e-07, "MEAN_MOTION_DDOT": 0}, "tle": {"line1": "1 29945U 99025JT  25341.98239089  .00000064  00000+0  65466-4 0  9997", "line2": "2 29945  98.7924   5.7672 0031183  15.8608  54.3439 14.05570450969116"}}, "geometry": {"type": "Point", "coordinates": [30.34535339437112, -69.25796681695297]}}, {"type": "Feature", "properties": {"norad_id": 29946, "name": "FENGYUN 1C DEB", "group": "fengyun-1c-debris", "lat": -81.1002091355858, "lon": 74.09216880991927, "alt_km": 869.1755834255091, "timestamp": "2025-12-08T10:52:03.220185+00:00", "meta": {"OBJECT_NAME": "FENGYUN 1C DEB", "OBJECT_ID": "1999-025JU", "EPOCH": "2025-12-07T23:38:15.340128", "MEAN_MOTION": 14.08247256, "ECCENTRICITY": 0.00808865, "INCLINATION": 98.7796, "RA_OF_ASC_NODE": 334.3531, "ARG_OF_PERICENTER": 356.8988, "MEAN_ANOMALY": 61.7265, "EPHEMERIS_TYPE": 0, "CLASSIFICATION_TYPE": "U", "NORAD_CAT_ID": 29946, "ELEMENT_SET_NO": 999, "REV_AT_EPOCH": 96980, "BSTAR": 0.00046858803, "MEAN_MOTION_DOT": 7.82e-06, "MEAN_MOTION_DDOT": 0}, "tle": {"line1": "1 29946U 99025JU  25341.98489977  .00000782  00000+0  46859-3 0  9992", "line2": "2 29946  98.7796 334.3531 0080886 356.8988  61.7265 14.08247256969805"}}, "geometry": {"type": "Point", "coordinates": [74.09216880991927, -81.1002091355858]}}, {"type": "Feature", "properties": {"norad_id": 29947, "name": "FENGYUN 1C DEB", "group": "fengyun-1c-debris", "lat": -30.500479913666833, "lon": 18.388470805816432, "alt_km": 917.5065465604348, "timestamp": "2025-12-08T10:52:03.220211+00:00", "meta": {"OBJECT_NAME": "FENGYUN 1C DEB", "OBJECT_ID": "1999-025JV", "EPOCH": "2025-12-07T20:29:59.038656", "MEAN_MOTION": 14.03061232, "ECCENTRICITY": 0.00408275, "INCLINATION": 98.8368, "RA_OF_ASC_NODE": 12.5496, "ARG_OF_PERICENTER": 134.1619, "MEAN_ANOMALY": 52.999, "EPHEMERIS_TYPE": 0, "CLASSIFICATION_TYPE": "U", "NORAD_CAT_ID": 29947, "ELEMENT_SET_NO": 999, "REV_AT_EPOCH": 96681, "BSTAR": 0.00044700342, "MEAN_MOTION_DOT": 6.57e-06, "MEAN_MOTION_DDOT": 0}, "tle": {"line1": "1 29947U 99025JV  25341.85415554  .00000657  00000+0  44700-3 0  9993", "line2": "2 29947  98.8368  12.5496 0040827 134.1619  52.9990 14.03061232966814"}}, "geometry": {"type": "Point", "coordinates": [18.388470805816432, -30.500479913666833]}}, {"type": "Feature", "properties": {"norad_id": 29948, "name": "FENGYUN 1C DEB", "group": "fengyun-1c-debris", "lat": 32.85426553331339, "lon": 154.4958200599882, "alt_km": 879.5623498343512, "timestamp": "2025-12-08T10:52:03.220224+00:00", "meta": {"OBJECT_NAME": "FENGYUN 1C DEB", "OBJECT_ID": "1999-025JW", "EPOCH": "2025-12-07T22:28:24.142656", "MEAN_MOTION": 14.06188303, "ECCENTRICITY": 0.00836122, "INCLINATION": 98.8238, "RA_OF_ASC_NODE": 328.2354, "ARG_OF_PERICENTER": 247.2355, "MEAN_ANOMALY": 167.4847, "EPHEMERIS_TYPE": 0, "CLASSIFICATION_TYPE": "U", "NORAD_CAT_ID": 29948, "ELEMENT_SET_NO": 999, "REV_AT_EPOCH": 96909, "BSTAR": 0.00010444447, "MEAN_MOTION_DOT": 1.34e-06, "MEAN_MOTION_DDOT": 0}, "tle": {"line1": "1 29948U 99025JW  25341.93639054  .00000134  00000+0  10444-3 0  9994", "line2": "2 29948  98.8238 328.2354 0083612 247.2355 167.4847 14.06188303969091"}}, "geometry": {"type": "Point", "coordinates": [154.4958200599882, 32.85426553331339]}}, {"type": "Feature", "properties": {"norad_id": 29949, "name": "FENGYUN 1C DEB", "group": "fengyun-1c-debris", "lat": 81.16259611907886, "lon": -98.97461595161953, "alt_km": 874.3449188320783, "timestamp": "2025-12-08T10:52:03.220235+00:00", "meta": {"OBJECT_NAME": "FENGYUN 1C DEB", "OBJECT_ID": "1999-025JX", "EPOCH": "2025-12-07T22:47:51.792000", "MEAN_MOTION": 14.06824922, "ECCENTRICITY": 0.00234, "INCLINATION": 98.7625, "RA_OF_ASC_NODE": 357.7842, "ARG_OF_PERICENTER": 319.529, "MEAN_ANOMALY": 105.7752, "EPHEMERIS_TYPE": 0, "CLASSIFICATION_TYPE": "U", "NORAD_CAT_ID": 29949, "ELEMENT_SET_NO": 999, "REV_AT_EPOCH": 97040, "BSTAR": -1.7482272e-05, "MEAN_MOTION_DOT": -7.2e-07, "MEAN_MOTION_DDOT": 0}, "tle": {"line1": "1 29949U 99025JX  25341.94990500 -.00000072  00000+0 -17482-4 0  9995", "line2": "2 29949  98.7625 357.7842 0023400 319.5290 105.7752 14.06824922970401"}}, "geometry": {"type": "Point", "coordinates": [-98.97461595161953, 81.16259611907886]}}, {"type": "Feature", "properties": {"norad_id": 29950, "name": "FENGYUN 1C DEB", "group": "fengyun-1c-debris", "lat": -51.52108821872641, "lon": -177.51146199470261, "alt_km": 843.5544993223575, "timestamp": "2025-12-08T10:52:03.220246+00:00", "meta": {"OBJECT_NAME": "FENGYUN 1C DEB", "OBJECT_ID": "1999-025JY", "EPOCH": "2025-12-07T23:50:43.111392", "MEAN_MOTION": 14.10330796, "ECCENTRICITY": 0.00322179, "INCLINATION": 98.7415, "RA_OF_ASC_NODE": 13.2036, "ARG_OF_PERICENTER": 255.9198, "MEAN_ANOMALY": 166.0674, "EPHEMERIS_TYPE": 0, "CLASSIFICATION_TYPE": "U", "NORAD_CAT_ID": 29950, "ELEMENT_SET_NO": 999, "REV_AT_EPOCH": 97224, "BSTAR": 0.00015053563, "MEAN_MOTION_DOT": 2.25e-06, "MEAN_MOTION_DDOT": 0}, "tle": {"line1": "1 29950U 99025JY  25341.99355453  .00000225  00000+0  15054-3 0  9994", "line2": "2 29950  98.7415  13.2036 0032217 255.9198 166.0674 14.10330796972248"}}, "geometry": {"type": "Point", "coordinates": [-177.51146199470261, -51.52108821872641]}}]}